{
  "norad_id": 65872,
  "name": "STARLINK-34108",
  "history": [
    {
      "epoch": "2026-03-28T14:27:43.184160",
      "apogee_km": 476.1962080802823,
      "perigee_km": 474.2238148103879,
      "latitude_deg": 47.15554549514244,
      "longitude_deg": 105.04798240005039,
      "semi_major_axis_km": 6853.347011445335,
      "eccentricity": 0.0001439,
      "inclination_deg": 53.1593,
      "raan_deg": 206.1574,
      "arg_perigee_deg": 93.1359,
      "mean_anomaly_deg": 266.9806,
      "mean_motion_rev_day": 15.30201694
    }
  ]
}