{"fetched_at":"2026-03-29T02:12:04Z","count":15717,"tles":[{"name":"STARLINK-34108","line1":"1 65872U 25223U   26087.60258316  .00034601  00000+0  11749-2 0  9993","line2":"2 65872  53.1593 206.1574 0001439  93.1359 266.9806 15.30201694 27106","category":"Starlink"}]}